NORAD_CAT_ID,OBJECT_NAME,OBJECT_TYPE,EPOCH,MEAN_MOTION,ECCENTRICITY,INCLINATION,RA_OF_ASC_NODE,ARG_OF_PERICENTER,MEAN_ANOMALY,BSTAR,MEAN_MOTION_DOT,MEAN_MOTION_DDOT,TLE_LINE0,TLE_LINE1,TLE_LINE2,SEMIMAJOR_AXIS,PERIOD,APOGEE,PERIGEE,DECAYED
53429.0,STARLINK-4543,PAYLOAD,2023-03-14 15:49:24,15.08844731,0.0001202,53.2169,322.0602,118.7317,241.3796,1.2251e-05,-9.3e-07,0.0,0 STARLINK-4543,1 53429U 22097AT  23073.65930679 -.00000093  00000-0  12251-4 0  9991,2 53429  53.2169 322.0602 0001202 118.7317 241.3796 15.08844731 33592,6917.866,95.437,540.562,538.899,0.0
53429.0,STARLINK-4543,PAYLOAD,2023-03-15 01:21:41,15.08869558,0.0001647,53.217,320.2761,139.9271,220.1843,0.00060314,9.332e-05,0.0,0 STARLINK-4543,1 53429U 22097AT  23074.05673378  .00009332  00000-0  60314-3 0  9992,2 53429  53.2170 320.2761 0001647 139.9271 220.1843 15.08869558 33656,6917.79,95.436,540.794,538.516,0.0
53429.0,STARLINK-4543,PAYLOAD,2023-03-15 20:26:20,15.0884495,8.72e-05,53.216,316.7087,97.5922,262.5169,3.9551e-05,3.42e-06,0.0,0 STARLINK-4543,1 53429U 22097AT  23074.85162343  .00000342  00000-0  39551-4 0  9997,2 53429  53.2160 316.7087 0000872  97.5922 262.5169 15.08844950 33770,6917.865,95.437,540.333,539.127,0.0
53429.0,STARLINK-4543,PAYLOAD,2023-03-15 22:01:43,15.08847442,0.0001007,53.2158,316.411,113.5332,246.5766,7.397e-05,8.9e-06,0.0,0 STARLINK-4543,1 53429U 22097AT  23074.91786142  .00000890  00000-0  73970-4 0  9994,2 53429  53.2158 316.4110 0001007 113.5332 246.5766 15.08847442 34265,6917.858,95.437,540.419,539.026,0.0
53429.0,STARLINK-4543,PAYLOAD,2023-03-15 23:37:06,15.08851776,0.0001025,53.2156,316.114,112.6097,247.5003,0.00031926,4.798e-05,0.0,0 STARLINK-4543,1 53429U 22097AT  23074.98410096  .00004798  00000-0  31926-3 0  9998,2 53429  53.2156 316.1140 0001025 112.6097 247.5003 15.08851776 33798,6917.844,95.437,540.418,539.0,0.0
53429.0,STARLINK-4543,PAYLOAD,2023-03-16 21:52:31,15.08819414,0.0001243,53.2165,311.952,88.996,271.1174,0.00020901,3.038e-05,0.0,0 STARLINK-4543,1 53429U 22097AT  23075.91147993  .00003038  00000-0  20901-3 0  9992,2 53429  53.2165 311.9520 0001243  88.9960 271.1174 15.08819414 33930,6917.943,95.439,540.668,538.948,0.0
53429.0,STARLINK-4543,PAYLOAD,2023-03-16 21:52:32,15.08814036,0.0001327,53.2165,311.9515,89.0782,271.0362,0.00044572,6.808e-05,0.0,0 STARLINK-4543,1 53429U 22097AT  23075.91148199  .00006808  00000-0  44572-3 0  9999,2 53429  53.2165 311.9515 0001327  89.0782 271.0362 15.08814036 34418,6917.96,95.439,540.743,538.907,0.0
53429.0,STARLINK-4543,PAYLOAD,2023-03-17 09:00:14,15.08832364,0.0001316,53.2169,309.8707,80.8578,279.2563,0.0007282,0.00011318,0.0,0 STARLINK-4543,1 53429U 22097AT  23076.37516385  .00011318  00000-0  72820-3 0  9995,2 53429  53.2169 309.8707 0001316  80.8578 279.2563 15.08832364 34485,6917.904,95.438,540.679,538.858,0.0
53429.0,STARLINK-4543,PAYLOAD,2023-03-17 21:43:18,15.08863034,0.0001257,53.2165,307.4925,65.208,294.9043,0.0011018,0.00017302,0.0,0 STARLINK-4543,1 53429U 22097AT  23076.90507570  .00017302  00000-0  11018-2 0  9990,2 53429  53.2165 307.4925 0001257  65.2080 294.9043 15.08863034 34560,6917.81,95.436,540.545,538.805,0.0
53429.0,STARLINK-4543,PAYLOAD,2023-03-17 23:18:41,15.08871356,0.0001266,53.2161,307.1941,71.7232,288.3898,0.0013587,0.0002142,0.0,0 STARLINK-4543,1 53429U 22097AT  23076.97131427  .00021420  00000-0  13587-2 0  9990,2 53429  53.2161 307.1941 0001266  71.7232 288.3898 15.08871356 34091,6917.785,95.436,540.525,538.774,0.0
53429.0,STARLINK-4543,PAYLOAD,2023-03-18 08:50:59,15.08866903,0.0001539,53.2166,305.4087,76.0976,284.0188,0.00043726,6.683e-05,0.0,0 STARLINK-4543,1 53429U 22097AT  23077.36874971  .00006683  00000-0  43726-3 0  9995,2 53429  53.2166 305.4087 0001539  76.0976 284.0188 15.08866903 34158,6917.798,95.436,540.728,538.599,0.0
53429.0,STARLINK-4543,PAYLOAD,2023-03-18 21:34:04,15.08858927,0.0001319,53.2154,303.0318,76.1404,283.9735,0.00025385,3.756e-05,0.0,0 STARLINK-4543,1 53429U 22097AT  23077.89866660  .00003756  00000-0  25385-3 0  9998,2 53429  53.2154 303.0318 0001319  76.1404 283.9735 15.08858927 34231,6917.823,95.436,540.6,538.775,0.0
53429.0,STARLINK-4543,PAYLOAD,2023-03-19 00:44:50,15.08859606,0.0001412,53.2154,302.4361,82.4109,277.7043,0.00025182,3.724e-05,0.0,0 STARLINK-4543,1 53429U 22097AT  23078.03114428  .00003724  00000-0  25182-3 0  9993,2 53429  53.2154 302.4361 0001412  82.4109 277.7043 15.08859606 34731,6917.82,95.436,540.662,538.709,0.0
53429.0,STARLINK-4543,PAYLOAD,2023-03-19 15:03:19,15.08842219,0.0001259,53.2163,299.7599,75.4444,284.6687,-8.8646e-05,-1.698e-05,0.0,0 STARLINK-4543,1 53429U 22097AT  23078.62730624 -.00001698  00000-0 -88646-4 0  9995,2 53429  53.2163 299.7599 0001259  75.4444 284.6687 15.08842219 34345,6917.874,95.437,540.61,538.868,0.0
53429.0,STARLINK-4543,PAYLOAD,2023-03-19 21:24:51,15.08847727,0.0001263,53.2156,298.5696,84.049,276.0646,-7.7735e-05,-1.525e-05,0.0,0 STARLINK-4543,1 53429U 22097AT  23078.89226488 -.00001525  00000-0 -77735-4 0  9998,2 53429  53.2156 298.5696 0001263  84.0490 276.0646 15.08847727 34860,6917.857,95.437,540.595,538.848,0.0
53429.0,STARLINK-4543,PAYLOAD,2023-03-20 06:57:11,15.08841481,0.0001385,53.2167,296.7838,87.5585,272.5565,-4.6654e-05,-1.03e-05,0.0,0 STARLINK-4543,1 53429U 22097AT  23079.28971112 -.00001030  00000-0 -46654-4 0  9990,2 53429  53.2167 296.7838 0001385  87.5585 272.5565 15.08841481 34927,6917.876,95.437,540.699,538.783,0.0
53429.0,STARLINK-4543,PAYLOAD,2023-03-20 21:15:39,15.08840107,0.0001172,53.2161,294.1095,89.3356,270.7771,4.9261e-05,4.96e-06,0.0,0 STARLINK-4543,1 53429U 22097AT  23079.88586962  .00000496  00000-0  49261-4 0  9991,2 53429  53.2161 294.1095 0001172  89.3356 270.7771 15.08840107 34538,6917.88,95.438,540.556,538.934,0.0
53429.0,STARLINK-4543,PAYLOAD,2023-03-21 00:26:25,15.08845037,0.0001165,53.2163,293.5143,85.6255,274.487,7.8597e-06,-1.63e-06,0.0,0 STARLINK-4543,1 53429U 22097AT  23080.01834707 -.00000163  00000-0  78597-5 0  9998,2 53429  53.2163 293.5143 0001165  85.6255 274.4870 15.08845037 35030,6917.865,95.437,540.536,538.924,0.0
53429.0,STARLINK-4543,PAYLOAD,2023-03-21 21:06:28,15.08815595,8.77e-05,53.2164,289.6473,85.154,274.9552,-8.9635e-05,-1.713e-05,0.0,0 STARLINK-4543,1 53429U 22097AT  23080.87949868 -.00001713  00000-0 -89635-4 0  9994,2 53429  53.2164 289.6473 0000877  85.1540 274.9552 15.08815595 34682,6917.955,95.439,540.427,539.213,0.0
53429.0,STARLINK-4543,PAYLOAD,2023-03-22 19:21:50,15.08846299,0.0001175,53.2159,285.4852,63.6535,296.4578,0.00014698,2.053e-05,0.0,0 STARLINK-4543,1 53429U 22097AT  23081.80683768  .00002053  00000-0  14698-3 0  9994,2 53429  53.2159 285.4852 0001175  63.6535 296.4578 15.08846299 34826,6917.861,95.437,540.539,538.913,0.0
53429.0,STARLINK-4543,PAYLOAD,2023-03-22 20:57:12,15.08860917,8.96e-05,53.216,285.1877,103.2347,256.8745,0.00026729,3.971e-05,0.0,0 STARLINK-4543,1 53429U 22097AT  23081.87306463  .00003971  00000-0  26729-3 0  9993,2 53429  53.2160 285.1877 0000896 103.2347 256.8745 15.08860917 35317,6917.816,95.436,540.301,539.062,0.0
53429.0,STARLINK-4543,PAYLOAD,2023-03-22 22:32:35,15.08861475,9.35e-05,53.2165,284.8907,94.8656,265.2443,0.00026472,3.93e-05,0.0,0 STARLINK-4543,1 53429U 22097AT  23081.93930427  .00003930  00000-0  26472-3 0  9993,2 53429  53.2165 284.8907 0000935  94.8656 265.2443 15.08861475 34840,6917.815,95.436,540.327,539.033,0.0
53429.0,STARLINK-4543,PAYLOAD,2023-03-23 20:48:00,15.08855649,8.48e-05,53.2161,280.7237,85.7818,274.3271,0.00014805,2.07e-05,0.0,0 STARLINK-4543,1 53429U 22097AT  23082.86667425  .00002070  00000-0  14805-3 0  9992,2 53429  53.2161 280.7237 0000848  85.7818 274.3271 15.08855649 34980,6917.833,95.437,540.284,539.111,0.0
53429.0,STARLINK-4543,PAYLOAD,2023-03-23 23:58:46,15.08855732,8.63e-05,53.2158,280.1306,93.3491,266.76,0.00014943,2.092e-05,0.0,0 STARLINK-4543,1 53429U 22097AT  23082.99915322  .00002092  00000-0  14943-3 0  9995,2 53429  53.2158 280.1306 0000863  93.3491 266.7600 15.08855732 35486,6917.832,95.437,540.294,539.1,0.0
53429.0,STARLINK-4543,PAYLOAD,2023-03-24 19:03:23,15.08862125,8.66e-05,53.2151,276.5637,85.9387,274.1704,2.3126e-05,8.1e-07,0.0,0 STARLINK-4543,1 53429U 22097AT  23083.79402432  .00000081  00000-0  23126-4 0  9997,2 53429  53.2151 276.5637 0000866  85.9387 274.1704 15.08862125 35605,6917.813,95.436,540.277,539.079,0.0
53429.0,STARLINK-4543,PAYLOAD,2023-03-25 06:11:05,15.08862127,8.63e-05,53.2151,274.4824,78.2722,281.8367,6.596e-05,7.63e-06,0.0,0 STARLINK-4543,1 53429U 22097AT  23084.25769917  .00000763  00000-0  65960-4 0  9992,2 53429  53.2151 274.4824 0000863  78.2722 281.8367 15.08862127 35191,6917.813,95.436,540.275,539.081,0.0
53429.0,STARLINK-4543,PAYLOAD,2023-03-25 18:54:12,15.08826185,9.32e-05,53.2153,272.1032,93.4728,266.6371,-0.00019126,-3.329e-05,0.0,0 STARLINK-4543,1 53429U 22097AT  23084.78764504 -.00003329  00000-0 -19126-3 0  9992,2 53429  53.2153 272.1032 0000932  93.4728 266.6371 15.08826185 35270,6917.923,95.438,540.432,539.143,0.0
53429.0,STARLINK-4543,PAYLOAD,2023-03-26 18:44:59,15.08846132,8.85e-05,53.2161,267.6437,83.939,276.1703,8.0755e-06,-1.59e-06,0.0,0 STARLINK-4543,1 53429U 22097AT  23085.78124189 -.00000159  00000-0  80755-5 0  9997,2 53429  53.2161 267.6437 0000885  83.9390 276.1703 15.08846132 35429,6917.862,95.437,540.339,539.114,0.0
53429.0,STARLINK-4543,PAYLOAD,2023-03-26 21:55:45,15.08841335,8.74e-05,53.2155,267.0482,88.196,271.9132,0.00014623,2.04e-05,0.0,0 STARLINK-4543,1 53429U 22097AT  23085.91372602  .00002040  00000-0  14623-3 0  9996,2 53429  53.2155 267.0482 0000874  88.1960 271.9132 15.08841335 35928,6917.876,95.437,540.346,539.137,0.0
53429.0,STARLINK-4543,PAYLOAD,2023-03-27 12:14:14,15.08845007,8.63e-05,53.2155,264.3721,92.3392,267.7699,0.00045346,6.937e-05,0.0,0 STARLINK-4543,1 53429U 22097AT  23086.50988554  .00006937  00000-0  45346-3 0  9996,2 53429  53.2155 264.3721 0000863  92.3392 267.7699 15.08845007 36010,6917.865,95.437,540.327,539.133,0.0
